COSMOS 2433 (720)       
1 32275U 07052A   23128.53064582 -.00000045  00000+0  00000+0 0  9990
2 32275  66.0464 353.8798 0001225 301.6768 227.6064  2.13104045120898
COSMOS 2432 (719)       
1 32276U 07052B   23128.91246650 -.00000046  00000+0  00000+0 0  9992
2 32276  66.0597 353.9727 0010580 338.6321  70.9927  2.13103437120901
COSMOS 2434 (721)       
1 32393U 07065A   23129.41891409  .00000027  00000+0  00000+0 0  9998
2 32393  64.3437 230.3141 0003132  84.8576 296.6286  2.13103193119621
COSMOS 2436 (723)       
1 32395U 07065C   23129.21016620  .00000028  00000+0  00000+0 0  9993
2 32395  64.3522 230.3830 0015814   2.4089 354.5408  2.13103087119541
COSMOS 2456 (730)       
1 36111U 09070A   23129.35744582  .00000065  00000+0  00000+0 0  9992
2 36111  64.4523 109.8576 0006347 301.9041 193.3266  2.13099250104288
COSMOS 2457 (733)       
1 36112U 09070B   23129.61509280  .00000065  00000+0  00000+0 0  9996
2 36112  64.4354 109.7183 0003815 202.2071 260.5442  2.13101360104297
COSMOS 2460 (732)       
1 36402U 10007C   23128.40059976 -.00000044  00000+0  00000+0 0  9996
2 36402  65.9118 352.6193 0002543  37.3289 200.7479  2.13106350102612
COSMOS 2476 (744)       
1 37867U 11064A   23129.52660292  .00000068  00000+0  00000+0 0  9994
2 37867  64.7329 111.3342 0023892 241.5669 291.7606  2.13101852 89636
COSMOS 2477 (745)       
1 37868U 11064B   23128.24350282  .00000064  00000+0  00000+0 0  9994
2 37868  64.7402 111.4465 0021287 243.0283 203.8765  2.13101703 89568
COSMOS 2475 (743)       
1 37869U 11064C   23129.21805720  .00000066  00000+0  00000+0 0  9997
2 37869  64.7487 111.4249 0026209 257.4799 175.3865  2.13101970 89595
COSMOS 2485 (747)       
1 39155U 13019A   23128.30401346  .00000065  00000+0  00000+0 0  9993
2 39155  64.8949 111.8750 0024018 237.6982 122.0556  2.13101791 78078
COSMOS 2492 (754)       
1 39620U 14012A   23128.84772203 -.00000045  00000+0  00000+0 0  9995
2 39620  65.7950 352.2395 0013395 332.2245 118.9289  2.13103219 71047
COSMOS 2500 (755)       
1 40001U 14032A   23128.68243701 -.00000044  00000+0  00000+0 0  9999
2 40001  65.7353 352.0830 0004171 194.9316 347.6408  2.13106094 69253
COSMOS 2501 (702K)      
1 40315U 14075A   23128.67838640  .00000032  00000+0  00000+0 0  9991
2 40315  63.6473 229.7990 0018746 207.1938 141.3903  2.13101647 65656
COSMOS 2514 (751)       
1 41330U 16008A   23129.14322843 -.00000046  00000+0  00000+0 0  9999
2 41330  65.5329 351.6767 0007950 205.0608 154.9540  2.13102665 56432
COSMOS 2516 (753)       
1 41554U 16032A   23128.32266669  .00000033  00000+0  00000+0 0  9991
2 41554  63.8733 230.1796 0014846 212.9674 146.9732  2.13106462 54021
COSMOS 2522 (752)       
1 42939U 17055A   23129.48435183  .00000026  00000+0  00000+0 0  9994
2 42939  64.1081 230.6284 0007202 236.2239 146.3309  2.13101988 43806
COSMOS 2527 (756)       
1 43508U 18053A   23128.73721389  .00000066  00000+0  00000+0 0  9993
2 43508  65.0566 111.9281 0009934 244.1303 317.1623  2.13102552 38077
COSMOS 2529 (757)       
1 43687U 18086A   23129.48670137  .00000026  00000+0  00000+0 0  9990
2 43687  64.3233 231.0328 0008669 263.2522  76.5862  2.13102138 35105
COSMOS 2534 (758)       
1 44299U 19030A   23128.52145927  .00000032  00000+0  00000+0 0  9995
2 44299  64.3959 230.9801 0010994 286.8838 166.7692  2.13102095 30738
COSMOS 2544 (759)       
1 44850U 19088A   23128.66788641  .00000066  00000+0  16595+1 0  9996
2 44850  65.0418 111.7750 0015200 262.9230 288.3763  2.13102298 26509
COSMOS 2545 (760)       
1 45358U 20018A   23129.08313074 -.00000047  00000+0  00000+0 0  9999
2 45358  64.8726 352.0205 0007129 256.8498 102.1181  2.13102694 24466
COSMOS 2547 (705K)      
1 46805U 20075A   23129.32877696  .00000028  00000+0  00000+0 0  9990
2 46805  64.6216 230.4739 0006450 238.6122 163.1735  2.13103210 19725
COSMOS 2557 (706K)      
1 52984U 22075A   23129.21021632 -.00000050  00000+0  10000-3 0  9997
2 52984  64.7846 354.1885 0011507 289.4581 257.4459  2.13101909  6514
COSMOS 2559 (707K)      
1 54031U 22130A   23129.07455731 -.00000049  00000+0  00000+0 0  9992
2 54031  64.7559 354.3254 0004574 225.9769 261.7817  2.13101109  4494
COSMOS 2564 (761)       
1 54377U 22161A   23127.77704713  .00000035  00000+0  00000+0 0  9995
2 54377  64.7634 230.5578 0008708 215.8982 207.5215  2.13102153  3414
